[{"OBJECT_NAME":"STARLINK-2630","OBJECT_ID":"2021-038AE","EPOCH":"2026-03-09T22:23:09.826368","MEAN_MOTION":15.30188975,"ECCENTRICITY":0.00013437,"INCLINATION":53.1584,"RA_OF_ASC_NODE":346.6562,"ARG_OF_PERICENTER":89.6533,"MEAN_ANOMALY":270.4622,"EPHEMERIS_TYPE":0,"CLASSIFICATION_TYPE":"U","NORAD_CAT_ID":48381,"ELEMENT_SET_NO":999,"REV_AT_EPOCH":26726,"BSTAR":-0.00012701387,"MEAN_MOTION_DOT":-4.118e-5,"MEAN_MOTION_DDOT":0},{"OBJECT_NAME":"BLUEBON","OBJECT_ID":"2025-009CH","EPOCH":"2026-03-09T16:52:33.225312","MEAN_MOTION":15.29047254,"ECCENTRICITY":0.00011933,"INCLINATION":97.4017,"RA_OF_ASC_NODE":152.2033,"ARG_OF_PERICENTER":43.39,"MEAN_ANOMALY":316.7434,"EPHEMERIS_TYPE":0,"CLASSIFICATION_TYPE":"U","NORAD_CAT_ID":62688,"ELEMENT_SET_NO":999,"REV_AT_EPOCH":6376,"BSTAR":0.00037313027,"MEAN_MOTION_DOT":0.00010452,"MEAN_MOTION_DDOT":0}]
